[
  {
    "COMMENT": "GENERATED VIA SPACETRACK.ORG API",
    "ORIGINATOR": "18 SPCS",
    "NORAD_CAT_ID": "27421",
    "OBJECT_NAME": "SPOT 5",
    "OBJECT_TYPE": "PAYLOAD",
    "CLASSIFICATION_TYPE": "U",
    "INTLDES": "02021A",
    "EPOCH": "2023-04-03 03:47:00",
    "EPOCH_MICROSECONDS": "204000",
    "MEAN_MOTION": "14.52588628",
    "ECCENTRICITY": "0.0133088",
    "INCLINATION": "98.1463",
    "RA_OF_ASC_NODE": "158.3314",
    "ARG_OF_PERICENTER": "305.7872",
    "MEAN_ANOMALY": "53.1021",
    "EPHEMERIS_TYPE": "0",
    "ELEMENT_SET_NO": "999",
    "REV_AT_EPOCH": "9275",
    "BSTAR": "0.00011373",
    "MEAN_MOTION_DOT": "0.0000047",
    "MEAN_MOTION_DDOT": "0",
    "FILE": "3879059",
    "TLE_LINE0": "0 SPOT 5",
    "TLE_LINE1": "1 27421U 02021A   23093.15764125  .00000470  00000-0  11373-3 0  9998",
    "TLE_LINE2": "2 27421  98.1463 158.3314 0133088 305.7872  53.1021 14.52588628 92753",
    "OBJECT_ID": "2002-021A",
    "OBJECT_NUMBER": "27421",
    "SEMIMAJOR_AXIS": "7095.343",
    "PERIOD": "99.133",
    "APOGEE": "811.639",
    "PERIGEE": "622.778",
    "DECAYED": "0"
  },
  {
    "COMMENT": "GENERATED VIA SPACETRACK.ORG API",
    "ORIGINATOR": "18 SPCS",
    "NORAD_CAT_ID": "27421",
    "OBJECT_NAME": "SPOT 5",
    "OBJECT_TYPE": "PAYLOAD",
    "CLASSIFICATION_TYPE": "U",
    "INTLDES": "02021A",
    "EPOCH": "2023-04-03 21:58:06",
    "EPOCH_MICROSECONDS": "251232",
    "MEAN_MOTION": "14.52589618",
    "ECCENTRICITY": "0.0133094",
    "INCLINATION": "98.1464",
    "RA_OF_ASC_NODE": "159.0677",
    "ARG_OF_PERICENTER": "303.456",
    "MEAN_ANOMALY": "55.3982",
    "EPHEMERIS_TYPE": "0",
    "ELEMENT_SET_NO": "999",
    "REV_AT_EPOCH": "9286",
    "BSTAR": "0.00011814",
    "MEAN_MOTION_DOT": "0.00000491",
    "MEAN_MOTION_DDOT": "0",
    "FILE": "3879321",
    "TLE_LINE0": "0 SPOT 5",
    "TLE_LINE1": "1 27421U 02021A   23093.91535013  .00000491  00000-0  11814-3 0  9997",
    "TLE_LINE2": "2 27421  98.1464 159.0677 0133094 303.4560  55.3982 14.52589618 92862",
    "OBJECT_ID": "2002-021A",
    "OBJECT_NUMBER": "27421",
    "SEMIMAJOR_AXIS": "7095.340",
    "PERIOD": "99.133",
    "APOGEE": "811.640",
    "PERIGEE": "622.770",
    "DECAYED": "0"
  },
  {
    "COMMENT": "GENERATED VIA SPACETRACK.ORG API",
    "ORIGINATOR": "18 SPCS",
    "NORAD_CAT_ID": "27421",
    "OBJECT_NAME": "SPOT 5",
    "OBJECT_TYPE": "PAYLOAD",
    "CLASSIFICATION_TYPE": "U",
    "INTLDES": "02021A",
    "EPOCH": "2023-04-04 01:16:29",
    "EPOCH_MICROSECONDS": "149824",
    "MEAN_MOTION": "14.52589753",
    "ECCENTRICITY": "0.0133076",
    "INCLINATION": "98.1464",
    "RA_OF_ASC_NODE": "159.2016",
    "ARG_OF_PERICENTER": "303.0352",
    "MEAN_ANOMALY": "55.8112",
    "EPHEMERIS_TYPE": "0",
    "ELEMENT_SET_NO": "999",
    "REV_AT_EPOCH": "9288",
    "BSTAR": "0.00011828",
    "MEAN_MOTION_DOT": "0.00000491",
    "MEAN_MOTION_DDOT": "0",
    "FILE": "3879487",
    "TLE_LINE0": "0 SPOT 5",
    "TLE_LINE1": "1 27421U 02021A   23094.05311516  .00000491  00000-0  11828-3 0  9998",
    "TLE_LINE2": "2 27421  98.1464 159.2016 0133076 303.0352  55.8112 14.52589753 92888",
    "OBJECT_ID": "2002-021A",
    "OBJECT_NUMBER": "27421",
    "SEMIMAJOR_AXIS": "7095.340",
    "PERIOD": "99.133",
    "APOGEE": "811.627",
    "PERIGEE": "622.783",
    "DECAYED": "0"
  },
  {
    "COMMENT": "GENERATED VIA SPACETRACK.ORG API",
    "ORIGINATOR": "18 SPCS",
    "NORAD_CAT_ID": "27421",
    "OBJECT_NAME": "SPOT 5",
    "OBJECT_TYPE": "PAYLOAD",
    "CLASSIFICATION_TYPE": "U",
    "INTLDES": "02021A",
    "EPOCH": "2023-04-04 07:53:14",
    "EPOCH_MICROSECONDS": "984160",
    "MEAN_MOTION": "14.52590127",
    "ECCENTRICITY": "0.0133074",
    "INCLINATION": "98.1463",
    "RA_OF_ASC_NODE": "159.4693",
    "ARG_OF_PERICENTER": "302.1747",
    "MEAN_ANOMALY": "56.6599",
    "EPHEMERIS_TYPE": "0",
    "ELEMENT_SET_NO": "999",
    "REV_AT_EPOCH": "9292",
    "BSTAR": "0.0001199",
    "MEAN_MOTION_DOT": "0.00000499",
    "MEAN_MOTION_DDOT": "0",
    "FILE": "3879817",
    "TLE_LINE0": "0 SPOT 5",
    "TLE_LINE1": "1 27421U 02021A   23094.32864565  .00000499  00000-0  11990-3 0  9993",
    "TLE_LINE2": "2 27421  98.1463 159.4693 0133074 302.1747  56.6599 14.52590127 92926",
    "OBJECT_ID": "2002-021A",
    "OBJECT_NUMBER": "27421",
    "SEMIMAJOR_AXIS": "7095.338",
    "PERIOD": "99.133",
    "APOGEE": "811.624",
    "PERIGEE": "622.783",
    "DECAYED": "0"
  },
  {
    "COMMENT": "GENERATED VIA SPACETRACK.ORG API",
    "ORIGINATOR": "18 SPCS",
    "NORAD_CAT_ID": "27421",
    "OBJECT_NAME": "SPOT 5",
    "OBJECT_TYPE": "PAYLOAD",
    "CLASSIFICATION_TYPE": "U",
    "INTLDES": "02021A",
    "EPOCH": "2023-04-04 07:53:14",
    "EPOCH_MICROSECONDS": "984160",
    "MEAN_MOTION": "14.52590127",
    "ECCENTRICITY": "0.0133074",
    "INCLINATION": "98.1463",
    "RA_OF_ASC_NODE": "159.4693",
    "ARG_OF_PERICENTER": "302.1747",
    "MEAN_ANOMALY": "56.6599",
    "EPHEMERIS_TYPE": "0",
    "ELEMENT_SET_NO": "999",
    "REV_AT_EPOCH": "9292",
    "BSTAR": "0.0001199",
    "MEAN_MOTION_DOT": "0.00000499",
    "MEAN_MOTION_DDOT": "0",
    "FILE": "3879974",
    "TLE_LINE0": "0 SPOT 5",
    "TLE_LINE1": "1 27421U 02021A   23094.32864565  .00000499  00000-0  11990-3 0  9993",
    "TLE_LINE2": "2 27421  98.1463 159.4693 0133074 302.1747  56.6599 14.52590127 92926",
    "OBJECT_ID": "2002-021A",
    "OBJECT_NUMBER": "27421",
    "SEMIMAJOR_AXIS": "7095.338",
    "PERIOD": "99.133",
    "APOGEE": "811.624",
    "PERIGEE": "622.783",
    "DECAYED": "0"
  },
  {
    "COMMENT": "GENERATED VIA SPACETRACK.ORG API",
    "ORIGINATOR": "18 SPCS",
    "NORAD_CAT_ID": "27421",
    "OBJECT_NAME": "SPOT 5",
    "OBJECT_TYPE": "PAYLOAD",
    "CLASSIFICATION_TYPE": "U",
    "INTLDES": "02021A",
    "EPOCH": "2023-04-04 17:48:23",
    "EPOCH_MICROSECONDS": "736096",
    "MEAN_MOTION": "14.52590588",
    "ECCENTRICITY": "0.0133079",
    "INCLINATION": "98.1465",
    "RA_OF_ASC_NODE": "159.871",
    "ARG_OF_PERICENTER": "300.9039",
    "MEAN_ANOMALY": "57.9126",
    "EPHEMERIS_TYPE": "0",
    "ELEMENT_SET_NO": "999",
    "REV_AT_EPOCH": "9298",
    "BSTAR": "0.00012058",
    "MEAN_MOTION_DOT": "0.00000502",
    "MEAN_MOTION_DDOT": "0",
    "FILE": "3880081",
    "TLE_LINE0": "0 SPOT 5",
    "TLE_LINE1": "1 27421U 02021A   23094.74194139  .00000502  00000-0  12058-3 0  9993",
    "TLE_LINE2": "2 27421  98.1465 159.8710 0133079 300.9039  57.9126 14.52590588 92984",
    "OBJECT_ID": "2002-021A",
    "OBJECT_NUMBER": "27421",
    "SEMIMAJOR_AXIS": "7095.337",
    "PERIOD": "99.133",
    "APOGEE": "811.626",
    "PERIGEE": "622.778",
    "DECAYED": "0"
  },
  {
    "COMMENT": "GENERATED VIA SPACETRACK.ORG API",
    "ORIGINATOR": "18 SPCS",
    "NORAD_CAT_ID": "27421",
    "OBJECT_NAME": "SPOT 5",
    "OBJECT_TYPE": "PAYLOAD",
    "CLASSIFICATION_TYPE": "U",
    "INTLDES": "02021A",
    "EPOCH": "2023-04-05 03:43:32",
    "EPOCH_MICROSECONDS": "484576",
    "MEAN_MOTION": "14.5259101",
    "ECCENTRICITY": "0.0133048",
    "INCLINATION": "98.1466",
    "RA_OF_ASC_NODE": "160.2724",
    "ARG_OF_PERICENTER": "299.6309",
    "MEAN_ANOMALY": "59.1676",
    "EPHEMERIS_TYPE": "0",
    "ELEMENT_SET_NO": "999",
    "REV_AT_EPOCH": "9304",
    "BSTAR": "0.00012065",
    "MEAN_MOTION_DOT": "0.00000502",
    "MEAN_MOTION_DDOT": "0",
    "FILE": "3880391",
    "TLE_LINE0": "0 SPOT 5",
    "TLE_LINE1": "1 27421U 02021A   23095.15523709  .00000502  00000-0  12065-3 0  9996",
    "TLE_LINE2": "2 27421  98.1466 160.2724 0133048 299.6309  59.1676 14.52591010 93049",
    "OBJECT_ID": "2002-021A",
    "OBJECT_NUMBER": "27421",
    "SEMIMAJOR_AXIS": "7095.336",
    "PERIOD": "99.133",
    "APOGEE": "811.603",
    "PERIGEE": "622.799",
    "DECAYED": "0"
  },
  {
    "COMMENT": "GENERATED VIA SPACETRACK.ORG API",
    "ORIGINATOR": "18 SPCS",
    "NORAD_CAT_ID": "27421",
    "OBJECT_NAME": "SPOT 5",
    "OBJECT_TYPE": "PAYLOAD",
    "CLASSIFICATION_TYPE": "U",
    "INTLDES": "02021A",
    "EPOCH": "2023-04-05 15:17:52",
    "EPOCH_MICROSECONDS": "718208",
    "MEAN_MOTION": "14.52591515",
    "ECCENTRICITY": "0.0133043",
    "INCLINATION": "98.1463",
    "RA_OF_ASC_NODE": "160.7404",
    "ARG_OF_PERICENTER": "298.1346",
    "MEAN_ANOMALY": "60.6457",
    "EPHEMERIS_TYPE": "0",
    "ELEMENT_SET_NO": "999",
    "REV_AT_EPOCH": "9311",
    "BSTAR": "0.00012009",
    "MEAN_MOTION_DOT": "0.000005",
    "MEAN_MOTION_DDOT": "0",
    "FILE": "3880753",
    "TLE_LINE0": "0 SPOT 5",
    "TLE_LINE1": "1 27421U 02021A   23095.63741572  .00000500  00000-0  12009-3 0  9995",
    "TLE_LINE2": "2 27421  98.1463 160.7404 0133043 298.1346  60.6457 14.52591515 93118",
    "OBJECT_ID": "2002-021A",
    "OBJECT_NUMBER": "27421",
    "SEMIMAJOR_AXIS": "7095.334",
    "PERIOD": "99.133",
    "APOGEE": "811.597",
    "PERIGEE": "622.800",
    "DECAYED": "0"
  },
  {
    "COMMENT": "GENERATED VIA SPACETRACK.ORG API",
    "ORIGINATOR": "18 SPCS",
    "NORAD_CAT_ID": "27421",
    "OBJECT_NAME": "SPOT 5",
    "OBJECT_TYPE": "PAYLOAD",
    "CLASSIFICATION_TYPE": "U",
    "INTLDES": "02021A",
    "EPOCH": "2023-04-05 18:36:15",
    "EPOCH_MICROSECONDS": "640128",
    "MEAN_MOTION": "14.52591587",
    "ECCENTRICITY": "0.0133048",
    "INCLINATION": "98.1464",
    "RA_OF_ASC_NODE": "160.8744",
    "ARG_OF_PERICENTER": "297.7099",
    "MEAN_ANOMALY": "61.0643",
    "EPHEMERIS_TYPE": "0",
    "ELEMENT_SET_NO": "999",
    "REV_AT_EPOCH": "9313",
    "BSTAR": "0.00011911",
    "MEAN_MOTION_DOT": "0.00000495",
    "MEAN_MOTION_DDOT": "0",
    "FILE": "3881028",
    "TLE_LINE0": "0 SPOT 5",
    "TLE_LINE1": "1 27421U 02021A   23095.77518102  .00000495  00000-0  11911-3 0  9995",
    "TLE_LINE2": "2 27421  98.1464 160.8744 0133048 297.7099  61.0643 14.52591587 93135",
    "OBJECT_ID": "2002-021A",
    "OBJECT_NUMBER": "27421",
    "SEMIMAJOR_AXIS": "7095.334",
    "PERIOD": "99.133",
    "APOGEE": "811.601",
    "PERIGEE": "622.797",
    "DECAYED": "0"
  }
]